[{"OBJECT_NAME":"STARLINK-35012","OBJECT_ID":"2025-191F","EPOCH":"2026-03-09T12:45:48.953376","MEAN_MOTION":15.05651084,"ECCENTRICITY":0.00022421,"INCLINATION":97.6033,"RA_OF_ASC_NODE":301.3369,"ARG_OF_PERICENTER":100.1247,"MEAN_ANOMALY":260.0232,"EPHEMERIS_TYPE":0,"CLASSIFICATION_TYPE":"U","NORAD_CAT_ID":65384,"ELEMENT_SET_NO":999,"REV_AT_EPOCH":3024,"BSTAR":0.00037638872,"MEAN_MOTION_DOT":5.375e-5,"MEAN_MOTION_DDOT":0},{"OBJECT_NAME":"PEGASUS DEB","OBJECT_ID":"1994-029CY","EPOCH":"2026-03-09T05:13:06.117888","MEAN_MOTION":14.31816092,"ECCENTRICITY":0.03405003,"INCLINATION":81.2891,"RA_OF_ASC_NODE":137.9762,"ARG_OF_PERICENTER":84.6876,"MEAN_ANOMALY":331.5571,"EPHEMERIS_TYPE":0,"CLASSIFICATION_TYPE":"U","NORAD_CAT_ID":24051,"ELEMENT_SET_NO":999,"REV_AT_EPOCH":50238,"BSTAR":0.0015079585,"MEAN_MOTION_DOT":7.708e-5,"MEAN_MOTION_DDOT":0}]
